{
  "type": "FeatureCollection",
  "features": [
    {
      "type": "Feature",
      "properties": {
        "norad_id": 35891,
        "name": "COSMOS 2251 DEB",
        "group": "cosmos-2251-debris",
        "lat": 23.469562547877587,
        "lon": -117.81028906866086,
        "alt_km": 441.3008915221508,
        "timestamp": "2025-12-24T03:53:30.044111+00:00",
        "meta_object_name": "COSMOS 2251 DEB",
        "meta_object_id": "1993-036AUE",
        "meta_epoch": "2025-12-23T13:07:46.294176",
        "meta_mean_motion": 15.34193649,
        "meta_eccentricity": 0.0041597,
        "meta_inclination": 73.9889,
        "meta_ra_of_asc_node": 70.6727,
        "meta_arg_of_pericenter": 199.1804,
        "meta_mean_anomaly": 160.7838,
        "meta_ephemeris_type": 0,
        "meta_classification_type": "U",
        "meta_norad_cat_id": 35891,
        "meta_element_set_no": 999,
        "meta_rev_at_epoch": 67386,
        "meta_bstar": 0.0012658,
        "meta_mean_motion_dot": 0.00043293,
        "meta_mean_motion_ddot": 0,
        "tle_line1": "1 35891U 93036AUE 25357.54706359  .00043293  00000+0  12658-2 0  9992",
        "tle_line2": "2 35891  73.9889  70.6727 0041597 199.1804 160.7838 15.34193649673867"
      },
      "geometry": {
        "type": "Point",
        "coordinates": [
          -117.81028906866086,
          23.469562547877587
        ]
      }
    },
    {
      "type": "Feature",
      "properties": {
        "norad_id": 35895,
        "name": "COSMOS 2251 DEB",
        "group": "cosmos-2251-debris",
        "lat": 71.08079540343506,
        "lon": 24.412295659398385,
        "alt_km": 742.7316413949075,
        "timestamp": "2025-12-24T03:53:30.044121+00:00",
        "meta_object_name": "COSMOS 2251 DEB",
        "meta_object_id": "1993-036AUJ",
        "meta_epoch": "2025-12-22T15:33:07.695936",
        "meta_mean_motion": 14.01570651,
        "meta_eccentricity": 0.01984376,
        "meta_inclination": 74.0474,
        "meta_ra_of_asc_node": 330.4733,
        "meta_arg_of_pericenter": 66.0465,
        "meta_mean_anomaly": 296.1309,
        "meta_ephemeris_type": 0,
        "meta_classification_type": "U",
        "meta_norad_cat_id": 35895,
        "meta_element_set_no": 999,
        "meta_rev_at_epoch": 59151,
        "meta_bstar": 0.0014393062,
        "meta_mean_motion_dot": 2.565e-05,
        "meta_mean_motion_ddot": 0,
        "tle_line1": "1 35895U 93036AUJ 25356.64800574  .00002565  00000+0  14393-2 0  9995",
        "tle_line2": "2 35895  74.0474 330.4733 0198437  66.0465 296.1309 14.01570651591511"
      },
      "geometry": {
        "type": "Point",
        "coordinates": [
          24.412295659398385,
          71.08079540343506
        ]
      }
    },
    {
      "type": "Feature",
      "properties": {
        "norad_id": 35898,
        "name": "COSMOS 2251 DEB",
        "group": "cosmos-2251-debris",
        "lat": 4.161622143009902,
        "lon": 93.16506360990505,
        "alt_km": 612.8299761896633,
        "timestamp": "2025-12-24T03:53:30.044131+00:00",
        "meta_object_name": "COSMOS 2251 DEB",
        "meta_object_id": "1993-036AUM",
        "meta_epoch": "2025-12-23T01:28:13.609632",
        "meta_mean_motion": 14.9486843,
        "meta_eccentricity": 0.00792798,
        "meta_inclination": 73.9918,
        "meta_ra_of_asc_node": 276.5869,
        "meta_arg_of_pericenter": 57.1802,
        "meta_mean_anomaly": 315.6135,
        "meta_ephemeris_type": 0,
        "meta_classification_type": "U",
        "meta_norad_cat_id": 35898,
        "meta_element_set_no": 999,
        "meta_rev_at_epoch": 66964,
        "meta_bstar": 0.00085758423,
        "meta_mean_motion_dot": 9.925e-05,
        "meta_mean_motion_ddot": 0,
        "tle_line1": "1 35898U 93036AUM 25357.06126863  .00009925  00000+0  85758-3 0  9998",
        "tle_line2": "2 35898  73.9918 276.5869 0079279  57.1802 315.6135 14.94868430669644"
      },
      "geometry": {
        "type": "Point",
        "coordinates": [
          93.16506360990505,
          4.161622143009902
        ]
      }
    },
    {
      "type": "Feature",
      "properties": {
        "norad_id": 35901,
        "name": "COSMOS 2251 DEB",
        "group": "cosmos-2251-debris",
        "lat": -16.956172449719208,
        "lon": -5.669510244033652,
        "alt_km": 541.6703670584357,
        "timestamp": "2025-12-24T03:53:30.044142+00:00",
        "meta_object_name": "COSMOS 2251 DEB",
        "meta_object_id": "1993-036AUQ",
        "meta_epoch": "2025-12-21T07:33:55.014048",
        "meta_mean_motion": 15.07789315,
        "meta_eccentricity": 0.0007598,
        "meta_inclination": 74.0113,
        "meta_ra_of_asc_node": 5.2093,
        "meta_arg_of_pericenter": 337.8636,
        "meta_mean_anomaly": 36.6976,
        "meta_ephemeris_type": 0,
        "meta_classification_type": "U",
        "meta_norad_cat_id": 35901,
        "meta_element_set_no": 999,
        "meta_rev_at_epoch": 86256,
        "meta_bstar": 0.0027352,
        "meta_mean_motion_dot": 0.00042089,
        "meta_mean_motion_ddot": 0,
        "tle_line1": "1 35901U 93036AUQ 25355.31522007  .00042089  00000+0  27352-2 0  9992",
        "tle_line2": "2 35901  74.0113   5.2093 0007598 337.8636  36.6976 15.07789315862560"
      },
      "geometry": {
        "type": "Point",
        "coordinates": [
          -5.669510244033652,
          -16.956172449719208
        ]
      }
    },
    {
      "type": "Feature",
      "properties": {
        "norad_id": 35902,
        "name": "COSMOS 2251 DEB",
        "group": "cosmos-2251-debris",
        "lat": -15.15777659604596,
        "lon": 38.31319459858458,
        "alt_km": 853.739893691778,
        "timestamp": "2025-12-24T03:53:30.044152+00:00",
        "meta_object_name": "COSMOS 2251 DEB",
        "meta_object_id": "1993-036AUR",
        "meta_epoch": "2025-12-22T20:41:03.846048",
        "meta_mean_motion": 14.26951694,
        "meta_eccentricity": 0.0102351,
        "meta_inclination": 73.9816,
        "meta_ra_of_asc_node": 216.2092,
        "meta_arg_of_pericenter": 329.0141,
        "meta_mean_anomaly": 30.4992,
        "meta_ephemeris_type": 0,
        "meta_classification_type": "U",
        "meta_norad_cat_id": 35902,
        "meta_element_set_no": 999,
        "meta_rev_at_epoch": 61274,
        "meta_bstar": 0.0010058,
        "meta_mean_motion_dot": 2.559e-05,
        "meta_mean_motion_ddot": 0,
        "tle_line1": "1 35902U 93036AUR 25356.86185007  .00002559  00000+0  10058-2 0  9992",
        "tle_line2": "2 35902  73.9816 216.2092 0102351 329.0141  30.4992 14.26951694612743"
      },
      "geometry": {
        "type": "Point",
        "coordinates": [
          38.31319459858458,
          -15.15777659604596
        ]
      }
    },
    {
      "type": "Feature",
      "properties": {
        "norad_id": 35905,
        "name": "COSMOS 2251 DEB",
        "group": "cosmos-2251-debris",
        "lat": -50.47198783874493,
        "lon": 27.930358972659,
        "alt_km": 522.2739944293244,
        "timestamp": "2025-12-24T03:53:30.044162+00:00",
        "meta_object_name": "COSMOS 2251 DEB",
        "meta_object_id": "1993-036AUU",
        "meta_epoch": "2025-12-20T21:58:14.302848",
        "meta_mean_motion": 14.99122069,
        "meta_eccentricity": 0.00907118,
        "meta_inclination": 74.0303,
        "meta_ra_of_asc_node": 194.2135,
        "meta_arg_of_pericenter": 272.3815,
        "meta_mean_anomaly": 86.6988,
        "meta_ephemeris_type": 0,
        "meta_classification_type": "U",
        "meta_norad_cat_id": 35905,
        "meta_element_set_no": 999,
        "meta_rev_at_epoch": 88705,
        "meta_bstar": 0.00044734031,
        "meta_mean_motion_dot": 5.886e-05,
        "meta_mean_motion_ddot": 0,
        "tle_line1": "1 35905U 93036AUU 25354.91544332  .00005886  00000+0  44734-3 0  9994",
        "tle_line2": "2 35905  74.0303 194.2135 0090711 272.3815  86.6988 14.99122069887058"
      },
      "geometry": {
        "type": "Point",
        "coordinates": [
          27.930358972659,
          -50.47198783874493
        ]
      }
    },
    {
      "type": "Feature",
      "properties": {
        "norad_id": 35959,
        "name": "COSMOS 2251 DEB",
        "group": "cosmos-2251-debris",
        "lat": -35.57019282630629,
        "lon": 122.96957800879382,
        "alt_km": 797.636960530509,
        "timestamp": "2025-12-24T03:53:30.044172+00:00",
        "meta_object_name": "COSMOS 2251 DEB",
        "meta_object_id": "1993-036AUZ",
        "meta_epoch": "2025-12-22T02:19:54.921216",
        "meta_mean_motion": 14.34142228,
        "meta_eccentricity": 0.00219687,
        "meta_inclination": 74.0331,
        "meta_ra_of_asc_node": 294.9334,
        "meta_arg_of_pericenter": 12.848,
        "meta_mean_anomaly": 347.3227,
        "meta_ephemeris_type": 0,
        "meta_classification_type": "U",
        "meta_norad_cat_id": 35959,
        "meta_element_set_no": 999,
        "meta_rev_at_epoch": 85062,
        "meta_bstar": 0.0001152914,
        "meta_mean_motion_dot": 2.97e-06,
        "meta_mean_motion_ddot": 0,
        "tle_line1": "1 35959U 93036AUZ 25356.09716344  .00000297  00000+0  11529-3 0  9995",
        "tle_line2": "2 35959  74.0331 294.9334 0021968  12.8480 347.3227 14.34142228850624"
      },
      "geometry": {
        "type": "Point",
        "coordinates": [
          122.96957800879382,
          -35.57019282630629
        ]
      }
    }
  ]
}